<?xml version="1.0" encoding="UTF-8"?>
<ndm xmlns:xsi="http://www.w3.org/2001/XMLSchema-instance" xsi:noNamespaceSchemaLocation="https://sanaregistry.org/r/ndmxml_unqualified/ndmxml-2.0.0-master-2.0.xsd">
<omm id="CCSDS_OMM_VERS" version="2.0">
<header><CREATION_DATE/><ORIGINATOR/></header><body><segment><metadata><OBJECT_NAME>EUTELSAT 8 WEST B</OBJECT_NAME><OBJECT_ID>2015-039B</OBJECT_ID><CENTER_NAME>EARTH</CENTER_NAME><REF_FRAME>TEME</REF_FRAME><TIME_SYSTEM>UTC</TIME_SYSTEM><MEAN_ELEMENT_THEORY>SGP4</MEAN_ELEMENT_THEORY></metadata><data><meanElements><EPOCH>2026-01-28T20:02:38.662944</EPOCH><MEAN_MOTION>1.00271198</MEAN_MOTION><ECCENTRICITY>.00039534</ECCENTRICITY><INCLINATION>0.0667</INCLINATION><RA_OF_ASC_NODE>346.9081</RA_OF_ASC_NODE><ARG_OF_PERICENTER>320.8587</ARG_OF_PERICENTER><MEAN_ANOMALY>112.9674</MEAN_ANOMALY></meanElements><tleParameters><EPHEMERIS_TYPE>0</EPHEMERIS_TYPE><CLASSIFICATION_TYPE>U</CLASSIFICATION_TYPE><NORAD_CAT_ID>40875</NORAD_CAT_ID><ELEMENT_SET_NO>999</ELEMENT_SET_NO><REV_AT_EPOCH>3825</REV_AT_EPOCH><BSTAR>0</BSTAR><MEAN_MOTION_DOT>-.63E-6</MEAN_MOTION_DOT><MEAN_MOTION_DDOT>0</MEAN_MOTION_DDOT></tleParameters></data></segment></body></omm>
<omm id="CCSDS_OMM_VERS" version="2.0">
<header><CREATION_DATE/><ORIGINATOR/></header><body><segment><metadata><OBJECT_NAME>EUTELSAT 9B</OBJECT_NAME><OBJECT_ID>2016-005A</OBJECT_ID><CENTER_NAME>EARTH</CENTER_NAME><REF_FRAME>TEME</REF_FRAME><TIME_SYSTEM>UTC</TIME_SYSTEM><MEAN_ELEMENT_THEORY>SGP4</MEAN_ELEMENT_THEORY></metadata><data><meanElements><EPOCH>2026-01-28T19:04:38.640288</EPOCH><MEAN_MOTION>1.00270934</MEAN_MOTION><ECCENTRICITY>.00048127</ECCENTRICITY><INCLINATION>0.0256</INCLINATION><RA_OF_ASC_NODE>58.6492</RA_OF_ASC_NODE><ARG_OF_PERICENTER>238.1481</ARG_OF_PERICENTER><MEAN_ANOMALY>126.3728</MEAN_ANOMALY></meanElements><tleParameters><EPHEMERIS_TYPE>0</EPHEMERIS_TYPE><CLASSIFICATION_TYPE>U</CLASSIFICATION_TYPE><NORAD_CAT_ID>41310</NORAD_CAT_ID><ELEMENT_SET_NO>999</ELEMENT_SET_NO><REV_AT_EPOCH>3671</REV_AT_EPOCH><BSTAR>0</BSTAR><MEAN_MOTION_DOT>.64E-6</MEAN_MOTION_DOT><MEAN_MOTION_DDOT>0</MEAN_MOTION_DDOT></tleParameters></data></segment></body></omm>
<omm id="CCSDS_OMM_VERS" version="2.0">
<header><CREATION_DATE/><ORIGINATOR/></header><body><segment><metadata><OBJECT_NAME>EUTELSAT 65 WEST A</OBJECT_NAME><OBJECT_ID>2016-014A</OBJECT_ID><CENTER_NAME>EARTH</CENTER_NAME><REF_FRAME>TEME</REF_FRAME><TIME_SYSTEM>UTC</TIME_SYSTEM><MEAN_ELEMENT_THEORY>SGP4</MEAN_ELEMENT_THEORY></metadata><data><meanElements><EPOCH>2026-01-28T17:06:40.419648</EPOCH><MEAN_MOTION>1.00268870</MEAN_MOTION><ECCENTRICITY>.00024259</ECCENTRICITY><INCLINATION>0.0677</INCLINATION><RA_OF_ASC_NODE>312.3420</RA_OF_ASC_NODE><ARG_OF_PERICENTER>353.0431</ARG_OF_PERICENTER><MEAN_ANOMALY>14.0265</MEAN_ANOMALY></meanElements><tleParameters><EPHEMERIS_TYPE>0</EPHEMERIS_TYPE><CLASSIFICATION_TYPE>U</CLASSIFICATION_TYPE><NORAD_CAT_ID>41382</NORAD_CAT_ID><ELEMENT_SET_NO>999</ELEMENT_SET_NO><REV_AT_EPOCH>3613</REV_AT_EPOCH><BSTAR>0</BSTAR><MEAN_MOTION_DOT>-.272E-5</MEAN_MOTION_DOT><MEAN_MOTION_DDOT>0</MEAN_MOTION_DDOT></tleParameters></data></segment></body></omm>
<omm id="CCSDS_OMM_VERS" version="2.0">
<header><CREATION_DATE/><ORIGINATOR/></header><body><segment><metadata><OBJECT_NAME>EUTELSAT 117 WEST B</OBJECT_NAME><OBJECT_ID>2016-038B</OBJECT_ID><CENTER_NAME>EARTH</CENTER_NAME><REF_FRAME>TEME</REF_FRAME><TIME_SYSTEM>UTC</TIME_SYSTEM><MEAN_ELEMENT_THEORY>SGP4</MEAN_ELEMENT_THEORY></metadata><data><meanElements><EPOCH>2026-01-28T14:46:54.569568</EPOCH><MEAN_MOTION>1.00270887</MEAN_MOTION><ECCENTRICITY>.00001406</ECCENTRICITY><INCLINATION>0.0009</INCLINATION><RA_OF_ASC_NODE>162.8069</RA_OF_ASC_NODE><ARG_OF_PERICENTER>278.3642</ARG_OF_PERICENTER><MEAN_ANOMALY>151.4268</MEAN_ANOMALY></meanElements><tleParameters><EPHEMERIS_TYPE>0</EPHEMERIS_TYPE><CLASSIFICATION_TYPE>U</CLASSIFICATION_TYPE><NORAD_CAT_ID>41589</NORAD_CAT_ID><ELEMENT_SET_NO>999</ELEMENT_SET_NO><REV_AT_EPOCH>3526</REV_AT_EPOCH><BSTAR>0</BSTAR><MEAN_MOTION_DOT>-.7E-7</MEAN_MOTION_DOT><MEAN_MOTION_DDOT>0</MEAN_MOTION_DDOT></tleParameters></data></segment></body></omm>
<omm id="CCSDS_OMM_VERS" version="2.0">
<header><CREATION_DATE/><ORIGINATOR/></header><body><segment><metadata><OBJECT_NAME>EUTELSAT 172B</OBJECT_NAME><OBJECT_ID>2017-029B</OBJECT_ID><CENTER_NAME>EARTH</CENTER_NAME><REF_FRAME>TEME</REF_FRAME><TIME_SYSTEM>UTC</TIME_SYSTEM><MEAN_ELEMENT_THEORY>SGP4</MEAN_ELEMENT_THEORY></metadata><data><meanElements><EPOCH>2026-01-28T18:04:38.678880</EPOCH><MEAN_MOTION>1.00270647</MEAN_MOTION><ECCENTRICITY>.00002514</ECCENTRICITY><INCLINATION>0.0280</INCLINATION><RA_OF_ASC_NODE>122.5417</RA_OF_ASC_NODE><ARG_OF_PERICENTER>154.6221</ARG_OF_PERICENTER><MEAN_ANOMALY>293.9824</MEAN_ANOMALY></meanElements><tleParameters><EPHEMERIS_TYPE>0</EPHEMERIS_TYPE><CLASSIFICATION_TYPE>U</CLASSIFICATION_TYPE><NORAD_CAT_ID>42741</NORAD_CAT_ID><ELEMENT_SET_NO>999</ELEMENT_SET_NO><REV_AT_EPOCH>3233</REV_AT_EPOCH><BSTAR>0</BSTAR><MEAN_MOTION_DOT>-.3E-7</MEAN_MOTION_DOT><MEAN_MOTION_DDOT>0</MEAN_MOTION_DDOT></tleParameters></data></segment></body></omm>
<omm id="CCSDS_OMM_VERS" version="2.0">
<header><CREATION_DATE/><ORIGINATOR/></header><body><segment><metadata><OBJECT_NAME>EUTELSAT 7C</OBJECT_NAME><OBJECT_ID>2019-034B</OBJECT_ID><CENTER_NAME>EARTH</CENTER_NAME><REF_FRAME>TEME</REF_FRAME><TIME_SYSTEM>UTC</TIME_SYSTEM><MEAN_ELEMENT_THEORY>SGP4</MEAN_ELEMENT_THEORY></metadata><data><meanElements><EPOCH>2026-01-28T19:04:38.640288</EPOCH><MEAN_MOTION>1.00270045</MEAN_MOTION><ECCENTRICITY>.00035164</ECCENTRICITY><INCLINATION>0.0770</INCLINATION><RA_OF_ASC_NODE>183.8309</RA_OF_ASC_NODE><ARG_OF_PERICENTER>109.5748</ARG_OF_PERICENTER><MEAN_ANOMALY>127.7612</MEAN_ANOMALY></meanElements><tleParameters><EPHEMERIS_TYPE>0</EPHEMERIS_TYPE><CLASSIFICATION_TYPE>U</CLASSIFICATION_TYPE><NORAD_CAT_ID>44334</NORAD_CAT_ID><ELEMENT_SET_NO>999</ELEMENT_SET_NO><REV_AT_EPOCH>543</REV_AT_EPOCH><BSTAR>0</BSTAR><MEAN_MOTION_DOT>.51E-6</MEAN_MOTION_DOT><MEAN_MOTION_DDOT>0</MEAN_MOTION_DDOT></tleParameters></data></segment></body></omm>
<omm id="CCSDS_OMM_VERS" version="2.0">
<header><CREATION_DATE/><ORIGINATOR/></header><body><segment><metadata><OBJECT_NAME>EUTELSAT 5 WEST B</OBJECT_NAME><OBJECT_ID>2019-067A</OBJECT_ID><CENTER_NAME>EARTH</CENTER_NAME><REF_FRAME>TEME</REF_FRAME><TIME_SYSTEM>UTC</TIME_SYSTEM><MEAN_ELEMENT_THEORY>SGP4</MEAN_ELEMENT_THEORY></metadata><data><meanElements><EPOCH>2026-01-28T20:02:38.662944</EPOCH><MEAN_MOTION>1.00270085</MEAN_MOTION><ECCENTRICITY>.00032682</ECCENTRICITY><INCLINATION>0.1010</INCLINATION><RA_OF_ASC_NODE>304.0161</RA_OF_ASC_NODE><ARG_OF_PERICENTER>5.1728</ARG_OF_PERICENTER><MEAN_ANOMALY>114.5220</MEAN_ANOMALY></meanElements><tleParameters><EPHEMERIS_TYPE>0</EPHEMERIS_TYPE><CLASSIFICATION_TYPE>U</CLASSIFICATION_TYPE><NORAD_CAT_ID>44624</NORAD_CAT_ID><ELEMENT_SET_NO>999</ELEMENT_SET_NO><REV_AT_EPOCH>2304</REV_AT_EPOCH><BSTAR>0</BSTAR><MEAN_MOTION_DOT>-.4E-6</MEAN_MOTION_DOT><MEAN_MOTION_DDOT>0</MEAN_MOTION_DDOT></tleParameters></data></segment></body></omm>
<omm id="CCSDS_OMM_VERS" version="2.0">
<header><CREATION_DATE/><ORIGINATOR/></header><body><segment><metadata><OBJECT_NAME>EUTELSAT KONNECT</OBJECT_NAME><OBJECT_ID>2020-005B</OBJECT_ID><CENTER_NAME>EARTH</CENTER_NAME><REF_FRAME>TEME</REF_FRAME><TIME_SYSTEM>UTC</TIME_SYSTEM><MEAN_ELEMENT_THEORY>SGP4</MEAN_ELEMENT_THEORY></metadata><data><meanElements><EPOCH>2026-01-28T19:04:38.640288</EPOCH><MEAN_MOTION>1.00269461</MEAN_MOTION><ECCENTRICITY>.00017535</ECCENTRICITY><INCLINATION>0.0655</INCLINATION><RA_OF_ASC_NODE>95.4237</RA_OF_ASC_NODE><ARG_OF_PERICENTER>181.2887</ARG_OF_PERICENTER><MEAN_ANOMALY>144.6787</MEAN_ANOMALY></meanElements><tleParameters><EPHEMERIS_TYPE>0</EPHEMERIS_TYPE><CLASSIFICATION_TYPE>U</CLASSIFICATION_TYPE><NORAD_CAT_ID>45027</NORAD_CAT_ID><ELEMENT_SET_NO>999</ELEMENT_SET_NO><REV_AT_EPOCH>2293</REV_AT_EPOCH><BSTAR>0</BSTAR><MEAN_MOTION_DOT>.52E-6</MEAN_MOTION_DOT><MEAN_MOTION_DDOT>0</MEAN_MOTION_DDOT></tleParameters></data></segment></body></omm>

</ndm>
