EUTELSAT 8 WEST B       
1 40875U 15039B   26028.83516971 -.00000063  00000+0  00000+0 0  9998
2 40875   0.0667 346.9081 0003953 320.8587 112.9674  1.00271198 38256
EUTELSAT 9B             
1 41310U 16005A   26028.79489167  .00000064  00000+0  00000+0 0  9998
2 41310   0.0256  58.6492 0004812 238.1481 126.3728  1.00270934 36712
EUTELSAT 65 WEST A      
1 41382U 16014A   26028.71296782 -.00000272  00000+0  00000+0 0  9990
2 41382   0.0677 312.3420 0002425 353.0431  14.0265  1.00268870 36130
EUTELSAT 117 WEST B     
1 41589U 16038B   26028.61590937 -.00000007  00000+0  00000+0 0  9999
2 41589   0.0009 162.8069 0000140 278.3642 151.4268  1.00270887 35263
EUTELSAT 172B           
1 42741U 17029B   26028.75322545 -.00000003  00000+0  00000+0 0  9990
2 42741   0.0280 122.5417 0000251 154.6221 293.9824  1.00270647 32336
EUTELSAT 7C             
1 44334U 19034B   26028.79489167  .00000051  00000+0  00000+0 0  9998
2 44334   0.0770 183.8309 0003516 109.5748 127.7612  1.00270045  5432
EUTELSAT 5 WEST B       
1 44624U 19067A   26028.83516971 -.00000040  00000+0  00000+0 0  9994
2 44624   0.1010 304.0161 0003268   5.1728 114.5220  1.00270085 23048
EUTELSAT KONNECT        
1 45027U 20005B   26028.79489167  .00000052  00000+0  00000+0 0  9999
2 45027   0.0655  95.4237 0001753 181.2887 144.6787  1.00269461 22939
